[{"OBJECT_NAME":"STARLINK-32597","OBJECT_ID":"2024-239D","EPOCH":"2026-03-09T15:07:58.883232","MEAN_MOTION":15.3018912,"ECCENTRICITY":7.42e-5,"INCLINATION":53.1595,"RA_OF_ASC_NODE":181.5021,"ARG_OF_PERICENTER":99.172,"MEAN_ANOMALY":260.9365,"EPHEMERIS_TYPE":0,"CLASSIFICATION_TYPE":"U","NORAD_CAT_ID":62304,"ELEMENT_SET_NO":999,"REV_AT_EPOCH":6955,"BSTAR":0.0010666,"MEAN_MOTION_DOT":0.00031352,"MEAN_MOTION_DDOT":0},{"OBJECT_NAME":"TEVEL2-2","OBJECT_ID":"2025-052K","EPOCH":"2026-03-09T15:33:48.895776","MEAN_MOTION":15.30343745,"ECCENTRICITY":0.0004693,"INCLINATION":97.3987,"RA_OF_ASC_NODE":324.77,"ARG_OF_PERICENTER":105.793,"MEAN_ANOMALY":254.3828,"EPHEMERIS_TYPE":0,"CLASSIFICATION_TYPE":"U","NORAD_CAT_ID":63219,"ELEMENT_SET_NO":999,"REV_AT_EPOCH":5485,"BSTAR":0.00069428,"MEAN_MOTION_DOT":0.00020339,"MEAN_MOTION_DDOT":0}]
